<?xml version="1.0" encoding="UTF-8"?>
<kml xmlns="http://www.opengis.net/kml/2.2">
  <Document>
    <name>ルート</name>
	<Style id='icon-ci-1-nodesc'>
		<IconStyle>
			<scale>1.1</scale>
			<Icon>
		        <href>https://bootselector.github.io/icon/se.png</href>
			</Icon>
		</IconStyle>
	</Style>
	<Style id='line-000000-1200-nodesc'>
		<LineStyle>
			<color>730000FF</color>
			<width>3</width>
		</LineStyle>
	</Style>
    <Placemark>
      <name>L</name>
      <styleUrl>#line-000000-1200-nodesc</styleUrl>
      <LineString>
        <tessellate>1</tessellate>
        <coordinates>
          138.422667,35.9374215,0
          138.4208002,35.9394455,0
          138.4126892,35.9436496,0
          138.4088697,35.9455605,0
          138.4047069,35.9474019,0
          138.4031191,35.9504939,0
          138.3974113,35.9512235,0
          138.3952226,35.9535858,0
          138.392991,35.9542806,0
          138.3887424,35.9546627,0
          138.3851375,35.9573376,0
          138.3819189,35.9599776,0
          138.3807602,35.9617839,0
          138.3788719,35.9636944,0
          138.3747091,35.9674805,0
          138.370208,35.970893,0
          138.370203,35.9710232,0
          138.3738293,35.9715963,0
          138.3814683,35.9714921,0
          138.3853736,35.9685051,0
          138.3914675,35.9661085,0
          138.3961882,35.9650317,0
          138.3986773,35.9644412,0
          138.4000077,35.9605508,0
          138.3978619,35.9581887,0
          138.4047284,35.9548538,0
          138.4092345,35.9541938,0
          138.4094491,35.9534816,0
          138.4120669,35.9529258,0
          138.4129038,35.9530995,0
          138.4139552,35.9526131,0
          138.415071,35.9517446,0
          138.4167018,35.9505634,0
          138.4171524,35.9492953,0
          138.4180751,35.9480273,0
          138.4194269,35.9454737,0
          138.4198775,35.942451,0
          138.4211435,35.9407485,0
          138.4224524,35.9397408,0
          138.4227314,35.9385595,0
          138.422667,35.9374215,0
        </coordinates>
      </LineString>
    </Placemark>
    <Placemark>
      <name>SE</name>
      <styleUrl>#icon-ci-1-nodesc</styleUrl>
      <Point>
        <coordinates>
          138.422667,35.9374215,0
        </coordinates>
      </Point>
    </Placemark>
  </Document>
</kml>
