<?xml version="1.0" encoding="UTF-8"?>
<kml xmlns="http://www.opengis.net/kml/2.2">
  <Document>
    <name>ルート</name>
	<Style id='icon-ci-1-nodesc'>
		<IconStyle>
			<scale>1.1</scale>
			<Icon>
		        <href>https://bootselector.github.io/icon/se.png</href>
			</Icon>
		</IconStyle>
	</Style>
	<Style id='line-000000-1200-nodesc'>
		<LineStyle>
			<color>730000FF</color>
			<width>3</width>
		</LineStyle>
	</Style>
    <Placemark>
      <name>L</name>
      <styleUrl>#line-000000-1200-nodesc</styleUrl>
      <LineString>
        <tessellate>1</tessellate>
        <coordinates>
          139.224321,36.5660376,0
          139.2179265,36.5657963,0
          139.2092147,36.5644176,0
          139.2052236,36.5651414,0
          139.2062107,36.5631767,0
          139.2031208,36.56166,0
          139.2016187,36.5585921,0
          139.1985288,36.558661,0
          139.1963401,36.5582819,0
          139.1939369,36.558661,0
          139.1933361,36.5596952,0
          139.193248,36.560377,0
          139.1932502,36.5622115,0
          139.193248,36.560377,0
          139.1933361,36.5596952,0
          139.1939369,36.558661,0
          139.1934648,36.5554551,0
          139.1925207,36.5537314,0
          139.1939369,36.551594,0
          139.1925207,36.5537314,0
          139.1934648,36.5554551,0
          139.1939369,36.558661,0
          139.1963401,36.5582819,0
          139.1985288,36.558661,0
          139.2016187,36.5585921,0
          139.2031208,36.56166,0
          139.2062107,36.5631767,0
          139.2052236,36.5651414,0
          139.2092147,36.5644176,0
          139.2179265,36.5657963,0
          139.2230764,36.5679851,0
          139.224321,36.5660376,0
        </coordinates>
      </LineString>
    </Placemark>
    <Placemark>
      <name>SE</name>
      <styleUrl>#icon-ci-1-nodesc</styleUrl>
      <Point>
        <coordinates>
          139.224321,36.5660376,0
        </coordinates>
      </Point>
    </Placemark>
  </Document>
</kml>
