<?xml version="1.0" encoding="UTF-8"?>
<kml xmlns="http://www.opengis.net/kml/2.2">
  <Document>
    <name>ルート</name>
	<Style id='icon-ci-1-nodesc'>
		<IconStyle>
			<scale>1.1</scale>
			<Icon>
		        <href>https://bootselector.github.io/icon/se.png</href>
			</Icon>
		</IconStyle>
	</Style>
	<Style id='line-000000-1200-nodesc'>
		<LineStyle>
			<color>730000FF</color>
			<width>3</width>
		</LineStyle>
	</Style>
    <Placemark>
      <name>L</name>
      <styleUrl>#line-000000-1200-nodesc</styleUrl>
      <LineString>
        <tessellate>1</tessellate>
        <coordinates>
          140.8791067,39.1468652,0
          140.8756391,39.1453209,0
          140.8721029,39.1461197,0
          140.8692533,39.1455606,0
          140.8682234,39.1436168,0
          140.8644812,39.1423121,0
          140.8599493,39.1425518,0
          140.8512632,39.1445355,0
          140.8466627,39.1480767,0
          140.8456327,39.1519905,0
          140.8408606,39.1555048,0
          140.8359167,39.1592584,0
          140.8320028,39.1601369,0
          140.8301489,39.1605895,0
          140.828611,39.163611,0
          140.8301489,39.1605895,0
          140.8320028,39.1601369,0
          140.8359167,39.1592584,0
          140.8408606,39.1555048,0
          140.8456327,39.1519905,0
          140.8466627,39.1480767,0
          140.8512632,39.1445355,0
          140.8599493,39.1425518,0
          140.8644812,39.1423121,0
          140.8682234,39.1436168,0
          140.8692533,39.1455606,0
          140.8721029,39.1461197,0
          140.8756391,39.1453209,0
          140.8791067,39.1468652,0
        </coordinates>
      </LineString>
    </Placemark>
    <Placemark>
      <name>SE</name>
      <styleUrl>#icon-ci-1-nodesc</styleUrl>
      <Point>
        <coordinates>
          140.8791067,39.1468652,0
        </coordinates>
      </Point>
    </Placemark>
  </Document>
</kml>
