<?xml version="1.0" encoding="UTF-8"?>
<kml xmlns="http://www.opengis.net/kml/2.2">
  <Document>
    <name>ルート</name>
	<Style id='icon-ci-1-nodesc'>
		<IconStyle>
			<scale>1.1</scale>
			<Icon>
		        <href>https://bootselector.github.io/icon/s.png</href>
			</Icon>
		</IconStyle>
	</Style>
	<Style id='icon-ci-2-nodesc'>
		<IconStyle>
			<scale>1.1</scale>
			<Icon>
		        <href>https://bootselector.github.io/icon/e.png</href>
			</Icon>
		</IconStyle>
	</Style>
	<Style id='line-000000-1200-nodesc'>
		<LineStyle>
			<color>730000FF</color>
			<width>3</width>
		</LineStyle>
	</Style>
    <Placemark>
      <name>L</name>
      <styleUrl>#line-000000-1200-nodesc</styleUrl>
      <LineString>
        <tessellate>1</tessellate>
        <coordinates>
          140.3415832,40.6184859,0
          140.3434629,40.6193394,0
          140.3412399,40.6213915,0
          140.3378925,40.6236082,0
          140.3338627,40.6259534,0
          140.3312706,40.6275559,0
          140.3225674,40.6300149,0
          140.3188252,40.6329592,0
          140.3157353,40.637232,0
          140.3093838,40.647431,0
          140.3045086,40.6518071,0
          140.3005261,40.6535522,0
          140.303056,40.655833,0
          140.3005261,40.6535522,0
          140.2992215,40.6533699,0
          140.3010067,40.6513382,0
          140.2992215,40.6533699,0
          140.2925953,40.6533959,0
          140.2824373,40.6494921,0
          140.2738885,40.6442301,0
          140.270215,40.6401401,0
          140.2676744,40.6298228,0
          140.2682237,40.6296925,0
        </coordinates>
      </LineString>
    </Placemark>
    <Placemark>
      <name>S</name>
      <styleUrl>#icon-ci-1-nodesc</styleUrl>
      <Point>
        <coordinates>
          140.3415832,40.6184859,0
        </coordinates>
      </Point>
    </Placemark>
    <Placemark>
      <name>E</name>
      <styleUrl>#icon-ci-2-nodesc</styleUrl>
      <Point>
        <coordinates>
          140.2682237,40.6296925,0
        </coordinates>
      </Point>
    </Placemark>
  </Document>
</kml>
