<?xml version="1.0" encoding="UTF-8"?>
<kml xmlns="http://www.opengis.net/kml/2.2">
  <Document>
    <name>ルート</name>
	<Style id='icon-ci-1-nodesc'>
		<IconStyle>
			<scale>1.1</scale>
			<Icon>
		        <href>https://bootselector.github.io/icon/se.png</href>
			</Icon>
		</IconStyle>
	</Style>
	<Style id='line-000000-1200-nodesc'>
		<LineStyle>
			<color>730000FF</color>
			<width>3</width>
		</LineStyle>
	</Style>
    <Placemark>
      <name>L</name>
      <styleUrl>#line-000000-1200-nodesc</styleUrl>
      <LineString>
        <tessellate>1</tessellate>
        <coordinates>
          139.968818,40.509869,0
          139.9695905,40.5098559,0
          139.9681828,40.5109,0
          139.9706033,40.5102736,0
          139.9744571,40.5117353,0
          139.9798472,40.5106129,0
          139.9814265,40.508107,0
          139.9847224,40.5078982,0
          139.9922755,40.5105085,0
          139.9928592,40.5133536,0
          139.9977343,40.5112654,0
          140.0003522,40.5110175,0
          140.0032704,40.5100517,0
          140.0076993,40.5104171,0
          140.0110639,40.5098168,0
          140.0135014,40.5092947,0
          140.0172093,40.5095818,0
          140.0185483,40.5065016,0
          140.018611,40.503333,0
          140.0185483,40.5065016,0
          140.0172093,40.5095818,0
          140.0135014,40.5092947,0
          140.0110639,40.5098168,0
          140.0076993,40.5104171,0
          140.0032704,40.5100517,0
          140.0003522,40.5110175,0
          139.9977343,40.5112654,0
          139.9928592,40.5133536,0
          139.9922755,40.5105085,0
          139.9847224,40.5078982,0
          139.9814265,40.508107,0
          139.9798472,40.5106129,0
          139.9744571,40.5117353,0
          139.9706033,40.5102736,0
          139.9681828,40.5109,0
          139.9695905,40.5098559,0
          139.968818,40.509869,0
        </coordinates>
      </LineString>
    </Placemark>
    <Placemark>
      <name>SE</name>
      <styleUrl>#icon-ci-1-nodesc</styleUrl>
      <Point>
        <coordinates>
          139.968818,40.509869,0
        </coordinates>
      </Point>
    </Placemark>
  </Document>
</kml>
