<?xml version="1.0" encoding="UTF-8"?>
<kml xmlns="http://www.opengis.net/kml/2.2">
  <Document>
    <name>ルート</name>
	<Style id='icon-ci-1-nodesc'>
		<IconStyle>
			<scale>1.1</scale>
			<Icon>
		        <href>https://bootselector.github.io/icon/s.png</href>
			</Icon>
		</IconStyle>
	</Style>
	<Style id='icon-ci-2-nodesc'>
		<IconStyle>
			<scale>1.1</scale>
			<Icon>
		        <href>https://bootselector.github.io/icon/e.png</href>
			</Icon>
		</IconStyle>
	</Style>
	<Style id='icon-ci-3-nodesc'>
		<IconStyle>
			<scale>1.1</scale>
			<Icon>
		        <href>https://bootselector.github.io/icon/b.png</href>
			</Icon>
		</IconStyle>
	</Style>
	<Style id='line-000000-1200-nodesc'>
		<LineStyle>
			<color>730000FF</color>
			<width>3</width>
		</LineStyle>
	</Style>
    <Placemark>
      <name>L</name>
      <styleUrl>#line-000000-1200-nodesc</styleUrl>
      <LineString>
        <tessellate>1</tessellate>
        <coordinates>
          137.8602494,35.8251027,0
          137.8576745,35.8283386,0
          137.8538979,35.8289649,0
          137.8511943,35.8289649,0
          137.8489198,35.8319572,0
          137.8456582,35.8326878,0
          137.8429974,35.8318876,0
          137.8411521,35.8293825,0
          137.8383626,35.8283038,0
          137.837161,35.8266337,0
          137.8367747,35.8233976,0
          137.8358306,35.8224233,0
          137.8344573,35.8201267,0
          137.8316249,35.81783,0
          137.8284921,35.8150112,0
          137.824973,35.8133407,0
          137.8242863,35.8121575,0
          137.8255738,35.8099649,0
          137.8282346,35.8078767,0
          137.8293933,35.8059277,0
          137.8280629,35.8039438,0
          137.829643,35.805956,0
          137.8280629,35.8039438,0
          137.8229989,35.7992102,0
          137.8192653,35.79834,0
          137.8172911,35.7970521,0
          137.8156604,35.7968084,0
          137.8129996,35.7948243,0
          137.8111972,35.7920047,0
          137.8075494,35.7901597,0
          137.804561,35.789560,0
          137.8068627,35.7876533,0
          137.807721,35.7860519,0
          137.8081931,35.7841371,0
          137.809266,35.7829186,0
          137.809198,35.781430,0
          137.808751,35.779263,0
          137.809266,35.7785319,0
          137.8094376,35.7760947,0
          137.8101243,35.7742841,0
          137.8099526,35.7727869,0
          137.8106822,35.7701058,0
          137.8105105,35.7670416,0
          137.810253,35.7655442,0
          137.8108109,35.7635245,0
          137.8119696,35.7618182,0
          137.8118838,35.759276,0
          137.8126134,35.7572561,0
          137.8135575,35.7551317,0
          137.813304,35.751999,0
          137.8161324,35.751231,0
          137.8133859,35.7519973,0
          137.8114547,35.7495244,0
          137.8096951,35.7479223,0
          137.8043307,35.742628,0
          137.8035153,35.7404683,0
          137.8033866,35.739493,0
          137.8046311,35.7371939,0
          137.8048028,35.7351387,0
          137.8042449,35.7338846,0
          137.8042449,35.7314809,0
          137.8048886,35.729948,0
          137.8047599,35.7265687,0
          137.8052749,35.7253493,0
          137.8083218,35.7231544,0
          137.8131713,35.7208549,0
          137.8154458,35.7200535,0
          137.817118,35.719049,0
          137.8166045,35.7165344,0
          137.8167332,35.7122485,0
          137.8164328,35.708729,0
          137.8151025,35.7061851,0
          137.8134288,35.7049654,0
          137.812785,35.7040245,0
          137.810740,35.701394,0
          137.8123988,35.6992849,0
          137.8131713,35.6949981,0
          137.8136863,35.6924538,0
          137.8090943,35.6884106,0
          137.8062619,35.6853084,0
          137.8041161,35.681962,0
          137.8032578,35.6811254,0
          137.803273,35.679470,0
          137.798108,35.6775,0
          137.7943314,35.6776394,0
          137.798108,35.6775,0
          137.8036012,35.680219,0
          137.8048028,35.6760707,0
          137.805189,35.6740487,0
          137.8044165,35.6707018,0
          137.8037728,35.6678081,0
          137.8014983,35.6656813,0
          137.80167,35.6619506,0
          137.8026999,35.6597539,0
          137.8013696,35.6556742,0
          137.7977218,35.6533727,0
          137.7961768,35.6495717,0
          137.7930869,35.6470957,0
          137.7926148,35.6450381,0
          137.7907266,35.6437477,0
          137.7891816,35.6423527,0
          137.7865208,35.6392138,0
          137.7846755,35.6382721,0
          137.7818431,35.6369816,0
          137.7806414,35.6349586,0
          137.7790536,35.6332495,0
          137.7772082,35.6312613,0
          137.774398,35.630396,0
          137.7685393,35.6302846,0
          137.7657498,35.6295173,0
          137.7634753,35.6282615,0
          137.7596129,35.6271104,0
          137.7569951,35.6242151,0
          137.7563514,35.6223313,0
          137.7537764,35.6199591,0
          137.7517594,35.6195056,0
          137.7476395,35.6172031,0
          137.7460088,35.6167844,0
          137.7441634,35.6159123,0
          137.7422322,35.6153192,0
          137.7391423,35.6136794,0
          137.737613,35.612878,0
          137.7351941,35.6134003,0
          137.7312459,35.6130514,0
          137.7300443,35.6128072,0
          137.7312459,35.6130514,0
          137.7351941,35.6134003,0
          137.737613,35.612878,0
          137.7374686,35.6106441,0
          137.7353658,35.6083413,0
          137.7375974,35.605236,0
          137.7371253,35.6034913,0
          137.7341212,35.6022003,0
          137.7344216,35.6003509,0
          137.7309026,35.5984317,0
          137.7319541,35.5972978,0
          137.7322974,35.5955181,0
          137.7347436,35.594192,0
          137.7349152,35.5927263,0
          137.7311387,35.5932149,0
          137.7279629,35.5939477,0
          137.7283492,35.5924471,0
          137.7303662,35.5899693,0
          137.7333703,35.5856418,0
          137.7326836,35.5816281,0
          137.7337565,35.5829543,0
          137.7333273,35.5809649,0
          137.7336707,35.5789754,0
          137.7339282,35.5761482,0
          137.7333273,35.5722736,0
          137.7328982,35.5692018,0
          137.7308383,35.568364,0
          137.729422,35.567212,0
          137.7290358,35.5655015,0
          137.7275767,35.5648382,0
          137.7266326,35.562185,0
          137.72689,35.5606838,0
          137.7259888,35.5590779,0
          137.7250232,35.5583796,0
          137.7235748,35.5565467,0
          137.7258064,35.5574195,0
          137.7261927,35.5557786,0
          137.7260639,35.55522,0
          137.7268364,35.554801,0
          137.7267506,35.5538234,0
          137.7279951,35.5534044,0
          137.7283814,35.5540329,0
          137.7289822,35.5536139,0
          137.7300121,35.5542773,0
          137.7308275,35.5532648,0
          137.7317287,35.5539281,0
          137.7355053,35.5528807,0
          137.7354624,35.555604,0
          137.7345612,35.5561976,0
          137.7353336,35.556826,0
          137.7340462,35.5574544,0
          137.7354624,35.558432,0
          137.7362778,35.5586066,0
          137.7361919,35.558013,0
          137.737179,35.5575941,0
          137.7376511,35.5569656,0
          137.7388956,35.55721,0
          137.7397539,35.5563372,0
          137.7421143,35.5568958,0
          137.7424147,35.5574195,0
          137.7418568,35.558013,0
          137.743745,35.5574544,0
          137.744775,35.5575243,0
          137.7449467,35.5586066,0
          137.7444317,35.5605616,0
          137.7453329,35.5594444,0
          137.7461054,35.5593048,0
          137.7469637,35.5578734,0
          137.7473928,35.5571751,0
          137.7483799,35.5565467,0
          137.7495815,35.5568958,0
          137.7495386,35.560038,0
          137.7512123,35.5579432,0
          137.7525427,35.558816,0
          137.7525427,35.5579083,0
          137.7530148,35.5578036,0
          137.7526714,35.5567213,0
          137.7528431,35.556023,0
          137.7540447,35.5553596,0
          137.7541735,35.5561976,0
          137.7547743,35.5562325,0
          137.7552034,35.55522,0
          137.7557613,35.5550454,0
          137.7566626,35.5550803,0
          137.7576925,35.553579,0
          137.7593233,35.5529505,0
          137.7612974,35.5530204,0
          137.760997,35.5537536,0
          137.7601387,35.5545217,0
          137.7617695,35.5542424,0
          137.7632501,35.5532298,0
          137.7637436,35.5538321,0
          137.7632072,35.5529593,0
          137.7642371,35.5536575,0
          137.7641727,35.5543384,0
          137.7638294,35.554513,0
          137.7640869,35.555508,0
          137.7652027,35.5561888,0
          137.7657606,35.555927,0
          137.7652027,35.5549843,0
          137.7661039,35.5539718,0
          137.7667477,35.5540067,0
          137.7667906,35.5534131,0
          137.7653744,35.5519467,0
          137.765589,35.5512484,0
          137.7649023,35.5505501,0
          137.7639153,35.5473028,0
          137.7649881,35.5453823,0
          137.7657606,35.5445094,0
          137.7660181,35.5435491,0
          137.7679064,35.5434094,0
          137.7677776,35.5422571,0
          137.768078,35.5412793,0
          137.7694943,35.5403016,0
          137.7709963,35.5403016,0
          137.7709105,35.5392889,0
          137.7719833,35.5382761,0
          137.7728846,35.5382761,0
          137.7727558,35.5373333,0
          137.7734425,35.5367745,0
          137.7735283,35.5358665,0
          137.7758886,35.5358316,0
          137.7766182,35.5346093,0
          137.7780344,35.5339109,0
          137.7792789,35.5347141,0
          137.779236,35.5338759,0
          137.780781,35.5327235,0
          137.7832272,35.5324091,0
          137.7841713,35.5332124,0
          137.7847292,35.531571,0
          137.7866604,35.5299644,0
          137.7872183,35.5286722,0
          137.7885701,35.5283229,0
          137.7906515,35.5260877,0
          137.7911665,35.526856,0
          137.7917459,35.5260702,0
          137.7920248,35.5247604,0
        </coordinates>
      </LineString>
    </Placemark>
    <Placemark>
      <name>S</name>
      <styleUrl>#icon-ci-1-nodesc</styleUrl>
      <Point>
        <coordinates>
          137.8600353,35.8248297,0
        </coordinates>
      </Point>
    </Placemark>
    <Placemark>
      <name>E</name>
      <styleUrl>#icon-ci-2-nodesc</styleUrl>
      <Point>
        <coordinates>
          137.7920248,35.5247604,0
        </coordinates>
      </Point>
    </Placemark>
    <Placemark>
      <name>B</name>
      <styleUrl>#icon-ci-3-nodesc</styleUrl>
      <Point>
        <coordinates>
          137.8367747,35.8233976,0
        </coordinates>
      </Point>
    </Placemark>
    <Placemark>
      <name>B</name>
      <styleUrl>#icon-ci-3-nodesc</styleUrl>
      <Point>
        <coordinates>
          137.8161324,35.751231,0
        </coordinates>
      </Point>
    </Placemark>
    <Placemark>
      <name>B</name>
      <styleUrl>#icon-ci-3-nodesc</styleUrl>
      <Point>
        <coordinates>
          137.7943314,35.6776394,0
        </coordinates>
      </Point>
    </Placemark>
    <Placemark>
      <name>B</name>
      <styleUrl>#icon-ci-3-nodesc</styleUrl>
      <Point>
        <coordinates>
          137.7634753,35.6282615,0
        </coordinates>
      </Point>
    </Placemark>
  </Document>
</kml>
