<?xml version="1.0" encoding="UTF-8"?>
<kml xmlns="http://www.opengis.net/kml/2.2">
  <Document>
    <name>ルート</name>
	<Style id='icon-ci-1-nodesc'>
		<IconStyle>
			<scale>1.1</scale>
			<Icon>
		        <href>https://bootselector.github.io/icon/se.png</href>
			</Icon>
		</IconStyle>
	</Style>
	<Style id='line-000000-1200-nodesc'>
		<LineStyle>
			<color>730000FF</color>
			<width>3</width>
		</LineStyle>
	</Style>
    <Placemark>
      <name>L</name>
      <styleUrl>#line-000000-1200-nodesc</styleUrl>
      <LineString>
        <tessellate>1</tessellate>
        <coordinates>
          139.0114413,37.2650222,0
          139.0138446,37.2660059,0
          139.0164882,37.2660059,0
          139.0186855,37.2672627,0
          139.0192348,37.2695304,0
          139.021226,37.2748579,0
          139.0191318,37.2764971,0
          139.021432,37.2765517,0
          139.0222217,37.2782455,0
          139.0276118,37.2782455,0
          139.0312854,37.2769888,0
          139.0330535,37.2763059,0
          139.0349933,37.2756229,0
          139.0362636,37.2744208,0
          139.0378429,37.2724811,0
          139.0402805,37.2708828,0
          139.042653,37.269001,0
          139.0402805,37.2708828,0
          139.0378429,37.2724811,0
          139.0362636,37.2744208,0
          139.0349933,37.2756229,0
          139.0330535,37.2763059,0
          139.032796,37.2745711,0
          139.0280925,37.2717024,0
          139.0263759,37.2717844,0
          139.024007,37.2703637,0
          139.021226,37.2658829,0
          139.0183765,37.2641069,0
          139.0148059,37.2645987,0
          139.0138446,37.2660059,0
          139.0114413,37.2650222,0
        </coordinates>
      </LineString>
    </Placemark>
    <Placemark>
      <name>SE</name>
      <styleUrl>#icon-ci-1-nodesc</styleUrl>
      <Point>
        <coordinates>
          139.0114413,37.2650222,0
        </coordinates>
      </Point>
    </Placemark>
  </Document>
</kml>
