<?xml version="1.0" encoding="UTF-8"?>
<kml xmlns="http://www.opengis.net/kml/2.2">
  <Document>
    <name>ルート</name>
	<Style id='icon-ci-1-nodesc'>
		<IconStyle>
			<scale>1.1</scale>
			<Icon>
		        <href>https://bootselector.github.io/icon/se.png</href>
			</Icon>
		</IconStyle>
	</Style>
	<Style id='line-000000-1200-nodesc'>
		<LineStyle>
			<color>730000FF</color>
			<width>3</width>
		</LineStyle>
	</Style>
    <Placemark>
      <name>L</name>
      <styleUrl>#line-000000-1200-nodesc</styleUrl>
      <LineString>
        <tessellate>1</tessellate>
        <coordinates>
          139.1262532,35.6991742,0
          139.1254593,35.6983552,0
          139.1258455,35.696996,0
          139.1265322,35.6968043,0
          139.1279698,35.6971005,0
          139.1282059,35.6962989,0
          139.1278411,35.6960201,0
          139.1283132,35.6957761,0
          139.128914,35.6957064,0
          139.1292358,35.6955147,0
          139.1301371,35.6960724,0
          139.1307808,35.6956716,0
          139.1316606,35.6956541,0
          139.132476,35.6952359,0
          139.1332699,35.6926045,0
          139.1342569,35.6914543,0
          139.135008,35.6908966,0
          139.1345144,35.6904609,0
          139.134729,35.6901995,0
          139.135244,35.6902866,0
          139.1356731,35.6898858,0
          139.1353084,35.6888053,0
          139.1353942,35.6876202,0
          139.1357375,35.6872716,0
          139.1357375,35.6862956,0
          139.1362096,35.6859993,0
          139.1367889,35.6859296,0
          139.1373898,35.6852848,0
          139.1359736,35.6826007,0
          139.1357161,35.6810321,0
          139.1323687,35.6778947,0
          139.131682,35.6753847,0
          139.129665,35.6741645,0
          139.131167,35.672003,0
          139.132361,35.672389,0
          139.131167,35.672003,0
          139.129665,35.6741645,0
          139.1286779,35.6754196,0
          139.1270901,35.6768489,0
          139.1297508,35.6810669,0
          139.1280771,35.6883173,0
          139.1303946,35.6925348,0
          139.1269613,35.6957761,0
          139.1258455,35.696996,0
          139.1254593,35.6983552,0
          139.1262532,35.6991742,0
        </coordinates>
      </LineString>
    </Placemark>
    <Placemark>
      <name>SE</name>
      <styleUrl>#icon-ci-1-nodesc</styleUrl>
      <Point>
        <coordinates>
          139.1262532,35.6991742,0
        </coordinates>
      </Point>
    </Placemark>
  </Document>
</kml>
