<?xml version="1.0" encoding="UTF-8"?>
<kml xmlns="http://www.opengis.net/kml/2.2">
  <Document>
    <name>ルート</name>
	<Style id='icon-ci-1-nodesc'>
		<IconStyle>
			<scale>1.1</scale>
			<Icon>
		        <href>https://bootselector.github.io/icon/se.png</href>
			</Icon>
		</IconStyle>
	</Style>
	<Style id='line-000000-1200-nodesc'>
		<LineStyle>
			<color>730000FF</color>
			<width>3</width>
		</LineStyle>
	</Style>
    <Placemark>
      <name>L</name>
      <styleUrl>#line-000000-1200-nodesc</styleUrl>
      <LineString>
        <tessellate>1</tessellate>
        <coordinates>
          138.2906201,35.7993318,0
          138.2889893,35.7984616,0
          138.2863286,35.7989837,0
          138.2856419,35.7988445,0
          138.2855132,35.7981483,0
          138.2846119,35.7981135,0
          138.284097,35.798392,0
          138.28105,35.797487,0
          138.2790759,35.7957814,0
          138.2773593,35.7962687,0
          138.2766726,35.7961991,0
          138.2763722,35.7955725,0
          138.2745268,35.7961643,0
          138.2735398,35.7961643,0
          138.2717803,35.7968952,0
          138.2705357,35.7971737,0
          138.2704928,35.7965471,0
          138.2711365,35.7937972,0
          138.2699778,35.7911516,0
          138.2715657,35.7906991,0
          138.2710078,35.789794,0
          138.2700636,35.7899332,0
          138.2680037,35.7880186,0
          138.2677033,35.7870786,0
          138.2667592,35.7863824,0
          138.2671454,35.7855469,0
          138.2662013,35.7850943,0
          138.2655146,35.7841195,0
          138.2639268,35.7848158,0
          138.2636263,35.7854424,0
          138.2619956,35.785895,0
          138.2609227,35.784398,0
          138.2596352,35.7848854,0
          138.2583048,35.7837366,0
          138.2545712,35.7848506,0
          138.2523825,35.7846417,0
          138.2500651,35.7856165,0
          138.2488635,35.7875312,0
          138.2480052,35.7878793,0
          138.249593,35.7915694,0
          138.2519105,35.7920567,0
          138.2545712,35.7926137,0
          138.2550862,35.791639,0
          138.2545712,35.7904902,0
          138.254271,35.790978,0
          138.2545712,35.7904902,0
          138.2550862,35.791639,0
          138.2545712,35.7926137,0
          138.2534554,35.7944238,0
          138.258219,35.796582,0
          138.2610943,35.7972781,0
          138.2665017,35.8007241,0
          138.2689049,35.8009677,0
          138.271361,35.802361,0
          138.2741406,35.8016638,0
          138.2857277,35.801281,0
          138.2876589,35.7997495,0
          138.2906201,35.7993318,0
        </coordinates>
      </LineString>
    </Placemark>
    <Placemark>
      <name>SE</name>
      <styleUrl>#icon-ci-1-nodesc</styleUrl>
      <Point>
        <coordinates>
          138.2906201,35.7993318,0
        </coordinates>
      </Point>
    </Placemark>
  </Document>
</kml>
