<?xml version="1.0" encoding="UTF-8"?>
<kml xmlns="http://www.opengis.net/kml/2.2">
  <Document>
    <name>ルート</name>
	<Style id='icon-ci-1-nodesc'>
		<IconStyle>
			<scale>1.1</scale>
			<Icon>
		        <href>https://bootselector.github.io/icon/se.png</href>
			</Icon>
		</IconStyle>
	</Style>
	<Style id='line-000000-1200-nodesc'>
		<LineStyle>
			<color>730000FF</color>
			<width>3</width>
		</LineStyle>
	</Style>
    <Placemark>
      <name>L</name>
      <styleUrl>#line-000000-1200-nodesc</styleUrl>
      <LineString>
        <tessellate>1</tessellate>
        <coordinates>
          139.1775607,35.798904,0
          139.1756446,35.8002754,0
          139.1751982,35.802141,0
          139.1747519,35.8021132,0
          139.1747863,35.8040901,0
          139.173619,35.8048141,0
          139.1698424,35.8028371,0
          139.1675765,35.8019182,0
          139.1647612,35.8016119,0
          139.1608474,35.7992729,0
          139.1588904,35.7984375,0
          139.155955,35.7984723,0
          139.1526248,35.7969408,0
          139.1499812,35.7966623,0
          139.1485736,35.7943232,0
          139.1468913,35.7929586,0
          139.1491915,35.789951,0
          139.1506678,35.7869153,0
          139.1513545,35.7861634,0
          139.1518351,35.7842974,0
          139.149500,35.782833,0
          139.1518351,35.7842974,0
          139.1532342,35.7835245,0
          139.1565987,35.7836359,0
          139.159208,35.7824104,0
          139.1613023,35.7812406,0
          139.1648728,35.7806279,0
          139.167434,35.781235,0
          139.1727349,35.7825079,0
          139.1756875,35.7849031,0
          139.1792237,35.7862121,0
          139.1820046,35.7876882,0
          139.181524,35.7912529,0
          139.1803223,35.7940099,0
          139.1836526,35.7974629,0
          139.1839616,35.7997463,0
          139.1830003,35.7998298,0
          139.1823823,35.7996906,0
          139.1804597,35.7997741,0
          139.1785349,35.7988518,0
          139.1775607,35.798904,0
        </coordinates>
      </LineString>
    </Placemark>
    <Placemark>
      <name>SE</name>
      <styleUrl>#icon-ci-1-nodesc</styleUrl>
      <Point>
        <coordinates>
          139.1775607,35.798904,0
        </coordinates>
      </Point>
    </Placemark>
  </Document>
</kml>
