<?xml version="1.0" encoding="UTF-8"?>
<kml xmlns="http://www.opengis.net/kml/2.2">
  <Document>
    <name>ルート</name>
	<Style id='icon-ci-1-nodesc'>
		<IconStyle>
			<scale>1.1</scale>
			<Icon>
		        <href>https://bootselector.github.io/icon/se.png</href>
			</Icon>
		</IconStyle>
	</Style>
	<Style id='line-000000-1200-nodesc'>
		<LineStyle>
			<color>730000FF</color>
			<width>3</width>
		</LineStyle>
	</Style>
    <Placemark>
      <name>L</name>
      <styleUrl>#line-000000-1200-nodesc</styleUrl>
      <LineString>
        <tessellate>1</tessellate>
        <coordinates>
          138.6416555,35.9091108,0
          138.6410117,35.9081375,0
          138.6389089,35.90706,0
          138.6349607,35.9083461,0
          138.6326861,35.9073728,0
          138.6309266,35.9056348,0
          138.6271501,35.9058781,0
          138.6222577,35.9060172,0
          138.6197686,35.9052177,0
          138.6149621,35.9077204,0
          138.6123443,35.9088327,0
          138.612327,35.909491,0
          138.6123443,35.9088327,0
          138.6104989,35.9045225,0
          138.6089969,35.9032363,0
          138.6079669,35.9002119,0
          138.6072803,35.8989605,0
          138.6071944,35.8970484,0
          138.6074948,35.8959707,0
          138.6051345,35.8939196,0
          138.605907,35.8916945,0
          138.6061216,35.8879744,0
          138.6061645,35.8862012,0
          138.6061645,35.8820635,0
          138.6065507,35.880012,0
          138.6061645,35.8820635,0
          138.6061645,35.8862012,0
          138.6101556,35.8864098,0
          138.6145759,35.8898519,0
          138.6174512,35.890582,0
          138.6192966,35.8933981,0
          138.6214852,35.8939196,0
          138.6232019,35.8969441,0
          138.6258626,35.8981261,0
          138.6299825,35.8985433,0
          138.6369777,35.9012896,0
          138.6410117,35.9081375,0
          138.6416555,35.9091108,0
        </coordinates>
      </LineString>
    </Placemark>
    <Placemark>
      <name>SE</name>
      <styleUrl>#icon-ci-1-nodesc</styleUrl>
      <Point>
        <coordinates>
          138.6416555,35.9091108,0
        </coordinates>
      </Point>
    </Placemark>
  </Document>
</kml>
