<?xml version="1.0" encoding="UTF-8"?>
<kml xmlns="http://www.opengis.net/kml/2.2">
  <Document>
    <name>ルート</name>
	<Style id='icon-ci-1-nodesc'>
		<IconStyle>
			<scale>1.1</scale>
			<Icon>
		        <href>https://bootselector.github.io/icon/se.png</href>
			</Icon>
		</IconStyle>
	</Style>
	<Style id='line-000000-1200-nodesc'>
		<LineStyle>
			<color>730000FF</color>
			<width>3</width>
		</LineStyle>
	</Style>
    <Placemark>
      <name>L</name>
      <styleUrl>#line-000000-1200-nodesc</styleUrl>
      <LineString>
        <tessellate>1</tessellate>
        <coordinates>
          138.705384,35.3882095,0
          138.7079932,35.3852706,0
          138.7022855,35.3811419,0
          138.7010152,35.3749555,0
          138.7009809,35.3677888,0
          138.7017705,35.3627213,0
          138.7009809,35.3677888,0
          138.7010152,35.3749555,0
          138.7022855,35.3811419,0
          138.7079932,35.3852706,0
          138.705384,35.3882095,0
        </coordinates>
      </LineString>
    </Placemark>
    <Placemark>
      <name>SE</name>
      <styleUrl>#icon-ci-1-nodesc</styleUrl>
      <Point>
        <coordinates>
          138.705384,35.3882095,0
        </coordinates>
      </Point>
    </Placemark>
  </Document>
</kml>
