<?xml version="1.0" encoding="UTF-8"?>
<kml xmlns="http://www.opengis.net/kml/2.2">
  <Document>
    <name>ルート</name>
	<Style id='icon-ci-1-nodesc'>
		<IconStyle>
			<scale>1.1</scale>
			<Icon>
		        <href>https://bootselector.github.io/icon/se.png</href>
			</Icon>
		</IconStyle>
	</Style>
	<Style id='line-000000-1200-nodesc'>
		<LineStyle>
			<color>730000FF</color>
			<width>3</width>
		</LineStyle>
	</Style>
    <Placemark>
      <name>L</name>
      <styleUrl>#line-000000-1200-nodesc</styleUrl>
      <LineString>
        <tessellate>1</tessellate>
        <coordinates>
          139.0776624,35.7876106,0
          139.078083,35.7871789,0
          139.0777396,35.7866706,0
          139.0778083,35.7871093,0
          139.0772418,35.7872903,0
          139.0768985,35.7876663,0
          139.0765037,35.7874296,0
          139.0755381,35.7873756,0
          139.0750231,35.7887959,0
          139.0735811,35.7871807,0
          139.0712122,35.7897428,0
          139.0697703,35.7921378,0
          139.068191,35.7927226,0
          139.0686373,35.790272,0
          139.0687746,35.7876263,0
          139.0707316,35.7832537,0
          139.0706629,35.7791664,0
          139.0708346,35.777328,0
          139.0699419,35.7744591,0
          139.0753664,35.7720357,0
          139.0770144,35.7715343,0
          139.080639,35.770083,0
          139.0770144,35.7715343,0
          139.077701,35.774097,0
          139.0778383,35.776186,0
          139.0809626,35.7780244,0
          139.0820955,35.7796677,0
          139.0798983,35.7802248,0
          139.0808381,35.7841136,0
          139.0795292,35.7847315,0
          139.079821,35.7853791,0
          139.080748,35.7851284,0
          139.0797695,35.7858525,0
          139.0779671,35.7851423,0
          139.0775122,35.786138,0
          139.0765037,35.7874296,0
          139.0768985,35.7876663,0
          139.0772418,35.7872903,0
          139.0778083,35.7871093,0
          139.0777396,35.7866706,0
          139.078083,35.7871789,0
          139.0776624,35.7876106,0
        </coordinates>
      </LineString>
    </Placemark>
    <Placemark>
      <name>SE</name>
      <styleUrl>#icon-ci-1-nodesc</styleUrl>
      <Point>
        <coordinates>
          139.0776624,35.7876106,0
        </coordinates>
      </Point>
    </Placemark>
  </Document>
</kml>
