<?xml version="1.0" encoding="UTF-8"?>
<kml xmlns="http://www.opengis.net/kml/2.2">
  <Document>
    <name>ルート</name>
	<Style id='icon-ci-1-nodesc'>
		<IconStyle>
			<scale>1.1</scale>
			<Icon>
		        <href>https://bootselector.github.io/icon/se.png</href>
			</Icon>
		</IconStyle>
	</Style>
	<Style id='icon-ci-2-nodesc'>
		<IconStyle>
			<scale>1.1</scale>
			<Icon>
		        <href>https://bootselector.github.io/icon/b.png</href>
			</Icon>
		</IconStyle>
	</Style>
	<Style id='line-000000-1200-nodesc'>
		<LineStyle>
			<color>730000FF</color>
			<width>3</width>
		</LineStyle>
	</Style>
    <Placemark>
      <name>L</name>
      <styleUrl>#line-000000-1200-nodesc</styleUrl>
      <LineString>
        <tessellate>1</tessellate>
        <coordinates>
          137.7995964,36.8111848,0
          137.7985664,36.8103258,0
          137.7944466,36.807577,0
          137.7933737,36.8026633,0
          137.7925583,36.7998456,0
          137.794232,36.7954812,0
          137.7940603,36.7892264,0
          137.7946611,36.7870956,0
          137.7954336,36.7873018,0
          137.7946611,36.7870956,0
          137.7933308,36.7864425,0
          137.7912708,36.778434,0
          137.7875372,36.7761653,0
          137.7824303,36.7733465,0
          137.7780529,36.7732778,0
          137.7757784,36.7736559,0
          137.7711435,36.7716277,0
          137.7684399,36.771009,0
          137.764792,36.7679494,0
          137.7624746,36.7661617,0
          137.7599426,36.7641677,0
          137.7591272,36.7616236,0
          137.758528,36.758500,0
          137.7591272,36.7616236,0
          137.7599426,36.7641677,0
          137.7624746,36.7661617,0
          137.7617451,36.7704589,0
          137.7573677,36.7747216,0
          137.754192,36.7761309,0
          137.7530762,36.7802901,0
          137.7521749,36.7830055,0
          137.75063,36.784724,0
          137.750115,36.7859957,0
          137.7506729,36.787508,0
          137.7524753,36.7929381,0
          137.753962,36.794723,0
          137.7534195,36.797715,0
          137.7510162,36.8004641,0
          137.7510591,36.8028008,0
          137.7515312,36.8048625,0
          137.7493425,36.8074739,0
          137.7456089,36.809776,0
          137.742004,36.8123873,0
          137.7397724,36.8160292,0
          137.7387424,36.8190868,0
          137.7371546,36.8197052,0
          137.730331,36.8186059,0
          137.7252241,36.8194991,0
          137.7241083,36.8201175,0
          137.7240225,36.8216291,0
          137.7220484,36.8225566,0
          137.7199884,36.8247209,0
          137.7177568,36.8246865,0
          137.7199884,36.8247209,0
          137.7254816,36.8248583,0
          137.729873,36.826741,0
          137.7326914,36.8283622,0
          137.734408,36.8300797,0
          137.7341934,36.8323811,0
          137.7368971,36.8360907,0
          137.744536,36.8353351,0
          137.7517458,36.8321407,0
          137.7563806,36.8290835,0
          137.7599426,36.8289805,0
          137.7638479,36.829324,0
          137.7665945,36.830114,0
          137.7686544,36.8291179,0
          137.7697273,36.8271599,0
          137.7680107,36.8251674,0
          137.769899,36.8216634,0
          137.7730747,36.8216634,0
          137.7814432,36.8224192,0
          137.7847906,36.8174721,0
          137.788138,36.8163727,0
          137.7904983,36.8164758,0
          137.7918716,36.8125247,0
          137.7935453,36.8115283,0
          137.7941247,36.8121124,0
          137.7946182,36.8122155,0
          137.7955623,36.8107725,0
          137.7969142,36.8100337,0
          137.7985664,36.8103258,0
          137.7995964,36.8111848,0
        </coordinates>
      </LineString>
    </Placemark>
    <Placemark>
      <name>SE</name>
      <styleUrl>#icon-ci-1-nodesc</styleUrl>
      <Point>
        <coordinates>
          137.7995964,36.8111848,0
        </coordinates>
      </Point>
    </Placemark>
    <Placemark>
      <name>B</name>
      <styleUrl>#icon-ci-2-nodesc</styleUrl>
      <Point>
        <coordinates>
          137.7954336,36.7873018,0
        </coordinates>
      </Point>
    </Placemark>
    <Placemark>
      <name>B</name>
      <styleUrl>#icon-ci-2-nodesc</styleUrl>
      <Point>
        <coordinates>
          137.7177568,36.8246865,0
        </coordinates>
      </Point>
    </Placemark>
  </Document>
</kml>
