<?xml version="1.0" encoding="UTF-8"?>
<kml xmlns="http://www.opengis.net/kml/2.2">
  <Document>
    <name>ルート</name>
	<Style id='icon-ci-1-nodesc'>
		<IconStyle>
			<scale>1.1</scale>
			<Icon>
		        <href>https://bootselector.github.io/icon/s.png</href>
			</Icon>
		</IconStyle>
	</Style>
	<Style id='icon-ci-2-nodesc'>
		<IconStyle>
			<scale>1.1</scale>
			<Icon>
		        <href>https://bootselector.github.io/icon/e.png</href>
			</Icon>
		</IconStyle>
	</Style>
	<Style id='line-000000-1200-nodesc'>
		<LineStyle>
			<color>730000FF</color>
			<width>3</width>
		</LineStyle>
	</Style>
    <Placemark>
      <name>L</name>
      <styleUrl>#line-000000-1200-nodesc</styleUrl>
      <LineString>
        <tessellate>1</tessellate>
        <coordinates>
          138.9664584,36.836438,0
          138.9663382,36.8350916,0
          138.9643126,36.8335253,0
          138.9647417,36.8346382,0
          138.9629736,36.8356687,0
          138.9614973,36.8352015,0
          138.9622012,36.8366441,0
          138.9613257,36.8361358,0
          138.9614802,36.8375097,0
          138.9606047,36.835916,0
          138.960742,36.8367952,0
          138.9577594,36.8379459,0
          138.9521289,36.8355828,0
          138.9429965,36.8314335,0
          138.932714,36.8319281,0
          138.9299331,36.8342089,0
          138.9299288,36.8347378,0
          138.930139,36.837083,0
          138.9299288,36.8347378,0
          138.9299331,36.8342089,0
          138.9292078,36.8327319,0
          138.9209681,36.8309732,0
          138.9167452,36.8297915,0
          138.912591,36.829132,0
          138.9075442,36.8276481,0
          138.9011927,36.8271534,0
          138.8965235,36.8266106,0
          138.8895884,36.8261709,0
          138.8870135,36.8256213,0
          138.8842326,36.8260885,0
          138.880456,36.8252915,0
          138.879218,36.824173,0
          138.8771258,36.8210042,0
          138.8757181,36.8189155,0
          138.8719759,36.8183108,0
          138.8644228,36.8162769,0
          138.8602343,36.8140575,0
          138.8560114,36.8118311,0
          138.8534022,36.8121335,0
          138.8511362,36.812106,0
          138.846879,36.8144698,0
          138.8421412,36.8164212,0
          138.8407336,36.8165312,0
          138.839550,36.817496,0
          138.8367167,36.815954,0
          138.83603,36.8154318,0
          138.8331805,36.8160914,0
          138.8303309,36.8178505,0
          138.821833,36.817861,0
          138.8209582,36.8204614,0
          138.8200655,36.8222753,0
          138.8220225,36.8265351,0
          138.8225031,36.8288366,0
          138.8258677,36.8316945,0
          138.8268633,36.8341951,0
          138.8275156,36.8366132,0
          138.8311892,36.8394983,0
          138.8329745,36.8392785,0
          138.8356095,36.8417926,0
          138.8432999,36.8462436,0
          138.8480378,36.8500349,0
          138.8465958,36.8510239,0
          138.8492394,36.8556461,0
          138.850338,36.8604808,0
          138.8516083,36.8621839,0
          138.8515053,36.8662217,0
          138.8518486,36.8678422,0
          138.8521276,36.8740528,0
          138.8506856,36.8779492,0
          138.8508745,36.8790477,0
          138.8526941,36.8786495,0
          138.853724,36.8798853,0
          138.8555866,36.8818523,0
          138.8571658,36.8803831,0
          138.8579898,36.8792297,0
          138.8624359,36.8759341,0
          138.8617664,36.8752612,0
        </coordinates>
      </LineString>
    </Placemark>
    <Placemark>
      <name>S</name>
      <styleUrl>#icon-ci-1-nodesc</styleUrl>
      <Point>
        <coordinates>
          138.9664584,36.836438,0
        </coordinates>
      </Point>
    </Placemark>
    <Placemark>
      <name>E</name>
      <styleUrl>#icon-ci-2-nodesc</styleUrl>
      <Point>
        <coordinates>
          138.8617664,36.8752612,0
        </coordinates>
      </Point>
    </Placemark>
  </Document>
</kml>
